{"type": "FeatureCollection", "features": [ {"type": "Feature", "properties": {"norad_id": 33799, "name": "COSMOS 2251 DEB", "group": "cosmos-2251-debris", "lat": -61.71402981263688, "lon": -61.305324703475215, "alt_km": 637.0977379159676, "timestamp": "2025-12-10T07:43:55.171838+00:00", "meta": {"OBJECT_NAME": "COSMOS 2251 DEB", "OBJECT_ID": "1993-036AQ", "EPOCH": "2025-12-09T18:21:49.722048", "MEAN_MOTION": 14.79505613, "ECCENTRICITY": 0.0023693, "INCLINATION": 74.032, "RA_OF_ASC_NODE": 87.6439, "ARG_OF_PERICENTER": 159.342, "MEAN_ANOMALY": 1.1626, "EPHEMERIS_TYPE": 0, "CLASSIFICATION_TYPE": "U", "NORAD_CAT_ID": 33799, "ELEMENT_SET_NO": 999, "REV_AT_EPOCH": 88767, "BSTAR": 0.0017206, "MEAN_MOTION_DOT": 0.00012918, "MEAN_MOTION_DDOT": 0}, "tle": {"line1": "1 33799U 93036AQ  25343.76515882  .00012918  00000+0  17206-2 0  9999", "line2": "2 33799  74.0320  87.6439 0023693 159.3420   1.1626 14.79505613887676"}}, "geometry": {"type": "Point", "coordinates": [-61.305324703475215, -61.71402981263688]}}, {"type": "Feature", "properties": {"norad_id": 33805, "name": "COSMOS 2251 DEB", "group": "cosmos-2251-debris", "lat": -28.780104424668394, "lon": 144.97991380292757, "alt_km": 686.9360318232766, "timestamp": "2025-12-10T07:43:55.171849+00:00", "meta": {"OBJECT_NAME": "COSMOS 2251 DEB", "OBJECT_ID": "1993-036AW", "EPOCH": "2025-12-09T15:57:15.028128", "MEAN_MOTION": 14.57845461, "ECCENTRICITY": 0.0060299, "INCLINATION": 74.0317, "RA_OF_ASC_NODE": 317.1806, "ARG_OF_PERICENTER": 147.0525, "MEAN_ANOMALY": 213.4421, "EPHEMERIS_TYPE": 0, "CLASSIFICATION_TYPE": "U", "NORAD_CAT_ID": 33805, "ELEMENT_SET_NO": 999, "REV_AT_EPOCH": 89182, "BSTAR": 0.00043874, "MEAN_MOTION_DOT": 2.03e-05, "MEAN_MOTION_DDOT": 0}, "tle": {"line1": "1 33805U 93036AW  25343.66475727  .00002030  00000+0  43874-3 0  9994", "line2": "2 33805  74.0317 317.1806 0060299 147.0525 213.4421 14.57845461891829"}}, "geometry": {"type": "Point", "coordinates": [144.97991380292757, -28.780104424668394]}}, {"type": "Feature", "properties": {"norad_id": 33811, "name": "COSMOS 2251 DEB", "group": "cosmos-2251-debris", "lat": 24.412292039457128, "lon": -44.766350446166115, "alt_km": 528.9180506470093, "timestamp": "2025-12-10T07:43:55.171859+00:00", "meta": {"OBJECT_NAME": "COSMOS 2251 DEB", "OBJECT_ID": "1993-036BC", "EPOCH": "2025-12-09T20:31:36.119424", "MEAN_MOTION": 15.05118834, "ECCENTRICITY": 0.003063, "INCLINATION": 73.8381, "RA_OF_ASC_NODE": 308.6376, "ARG_OF_PERICENTER": 29.6952, "MEAN_ANOMALY": 347.1657, "EPHEMERIS_TYPE": 0, "CLASSIFICATION_TYPE": "U", "NORAD_CAT_ID": 33811, "ELEMENT_SET_NO": 999, "REV_AT_EPOCH": 89975, "BSTAR": 0.0019057, "MEAN_MOTION_DOT": 0.00027485, "MEAN_MOTION_DDOT": 0}, "tle": {"line1": "1 33811U 93036BC  25343.85527916  .00027485  00000+0  19057-2 0  9996", "line2": "2 33811  73.8381 308.6376 0030630  29.6952 347.1657 15.05118834899753"}}, "geometry": {"type": "Point", "coordinates": [-44.766350446166115, 24.412292039457128]}}, {"type": "Feature", "properties": {"norad_id": 33815, "name": "COSMOS 2251 DEB", "group": "cosmos-2251-debris", "lat": -13.327207145109508, "lon": 177.74958957235512, "alt_km": 520.1515544089834, "timestamp": "2025-12-10T07:43:55.171869+00:00", "meta": {"OBJECT_NAME": "COSMOS 2251 DEB", "OBJECT_ID": "1993-036BG", "EPOCH": "2025-12-09T00:41:33.448704", "MEAN_MOTION": 15.1666065, "ECCENTRICITY": 0.00028567, "INCLINATION": 73.9532, "RA_OF_ASC_NODE": 184.3694, "ARG_OF_PERICENTER": 229.719, "MEAN_ANOMALY": 257.3256, "EPHEMERIS_TYPE": 0, "CLASSIFICATION_TYPE": "U", "NORAD_CAT_ID": 33815, "ELEMENT_SET_NO": 999, "REV_AT_EPOCH": 88314, "BSTAR": 0.0065404608, "MEAN_MOTION_DOT": 0.00130361, "MEAN_MOTION_DDOT": 0}, "tle": {"line1": "1 33815U 93036BG  25343.02885936  .00130361  00000+0  65405-2 0  9994", "line2": "2 33815  73.9532 184.3694 0002856 229.7190 257.3256 15.16660650883147"}}, "geometry": {"type": "Point", "coordinates": [177.74958957235512, -13.327207145109508]}}, {"type": "Feature", "properties": {"norad_id": 33816, "name": "COSMOS 2251 DEB", "group": "cosmos-2251-debris", "lat": -49.04828676508204, "lon": 90.04699446291471, "alt_km": 1157.507768290564, "timestamp": "2025-12-10T07:43:55.171880+00:00", "meta": {"OBJECT_NAME": "COSMOS 2251 DEB", "OBJECT_ID": "1993-036BH", "EPOCH": "2025-12-09T18:05:34.177920", "MEAN_MOTION": 13.81777486, "ECCENTRICITY": 0.026487, "INCLINATION": 73.8946, "RA_OF_ASC_NODE": 110.4563, "ARG_OF_PERICENTER": 123.9698, "MEAN_ANOMALY": 238.6904, "EPHEMERIS_TYPE": 0, "CLASSIFICATION_TYPE": "U", "NORAD_CAT_ID": 33816, "ELEMENT_SET_NO": 999, "REV_AT_EPOCH": 84632, "BSTAR": 0.0008546, "MEAN_MOTION_DOT": 1.173e-05, "MEAN_MOTION_DDOT": 0}, "tle": {"line1": "1 33816U 93036BH  25343.75386780  .00001173  00000+0  85460-3 0  9990", "line2": "2 33816  73.8946 110.4563 0264870 123.9698 238.6904 13.81777486846322"}}, "geometry": {"type": "Point", "coordinates": [90.04699446291471, -49.04828676508204]}}, {"type": "Feature", "properties": {"norad_id": 33818, "name": "COSMOS 2251 DEB", "group": "cosmos-2251-debris", "lat": -71.19774319405165, "lon": 114.24677931002674, "alt_km": 545.8428455065214, "timestamp": "2025-12-10T07:43:55.171890+00:00", "meta": {"OBJECT_NAME": "COSMOS 2251 DEB", "OBJECT_ID": "1993-036BK", "EPOCH": "2025-12-09T19:28:07.328352", "MEAN_MOTION": 15.12120956, "ECCENTRICITY": 0.0027857, "INCLINATION": 74.0757, "RA_OF_ASC_NODE": 172.2927, "ARG_OF_PERICENTER": 162.1276, "MEAN_ANOMALY": 217.3441, "EPHEMERIS_TYPE": 0, "CLASSIFICATION_TYPE": "U", "NORAD_CAT_ID": 33818, "ELEMENT_SET_NO": 999, "REV_AT_EPOCH": 89818, "BSTAR": 0.0030862, "MEAN_MOTION_DOT": 0.0005404, "MEAN_MOTION_DDOT": 0}, "tle": {"line1": "1 33818U 93036BK  25343.81119593  .00054040  00000+0  30862-2 0  9991", "line2": "2 33818  74.0757 172.2927 0027857 162.1276 217.3441 15.12120956898187"}}, "geometry": {"type": "Point", "coordinates": [114.24677931002674, -71.19774319405165]}}, {"type": "Feature", "properties": {"norad_id": 33819, "name": "COSMOS 2251 DEB", "group": "cosmos-2251-debris", "lat": 18.98382009038068, "lon": -140.18322379895253, "alt_km": 748.5745859844283, "timestamp": "2025-12-10T07:43:55.171900+00:00", "meta": {"OBJECT_NAME": "COSMOS 2251 DEB", "OBJECT_ID": "1993-036BL", "EPOCH": "2025-12-09T15:00:24.663744", "MEAN_MOTION": 14.32206482, "ECCENTRICITY": 0.0088974, "INCLINATION": 74.1789, "RA_OF_ASC_NODE": 215.479, "ARG_OF_PERICENTER": 77.7536, "MEAN_ANOMALY": 311.3325, "EPHEMERIS_TYPE": 0, "CLASSIFICATION_TYPE": "U", "NORAD_CAT_ID": 33819, "ELEMENT_SET_NO": 999, "REV_AT_EPOCH": 87451, "BSTAR": 0.00099444, "MEAN_MOTION_DOT": 2.776e-05, "MEAN_MOTION_DDOT": 0}, "tle": {"line1": "1 33819U 93036BL  25343.62528546  .00002776  00000+0  99444-3 0  9994", "line2": "2 33819  74.1789 215.4790 0088974  77.7536 311.3325 14.32206482874516"}}, "geometry": {"type": "Point", "coordinates": [-140.18322379895253, 18.98382009038068]}}, {"type": "Feature", "properties": {"norad_id": 33821, "name": "COSMOS 2251 DEB", "group": "cosmos-2251-debris", "lat": -28.7424364635328, "lon": 138.91133330813344, "alt_km": 526.7594222238749, "timestamp": "2025-12-10T07:43:55.171911+00:00", "meta": {"OBJECT_NAME": "COSMOS 2251 DEB", "OBJECT_ID": "1993-036BN", "EPOCH": "2025-12-09T17:41:41.405856", "MEAN_MOTION": 15.25017792, "ECCENTRICITY": 0.0052645, "INCLINATION": 74.0301, "RA_OF_ASC_NODE": 149.1832, "ARG_OF_PERICENTER": 183.4767, "MEAN_ANOMALY": 176.6076, "EPHEMERIS_TYPE": 0, "CLASSIFICATION_TYPE": "U", "NORAD_CAT_ID": 33821, "ELEMENT_SET_NO": 999, "REV_AT_EPOCH": 74955, "BSTAR": 0.0016365, "MEAN_MOTION_DOT": 0.0004272, "MEAN_MOTION_DDOT": 0}, "tle": {"line1": "1 33821U 93036BN  25343.73728479  .00042720  00000+0  16365-2 0  9999", "line2": "2 33821  74.0301 149.1832 0052645 183.4767 176.6076 15.25017792749552"}}, "geometry": {"type": "Point", "coordinates": [138.91133330813344, -28.7424364635328]}}, {"type": "Feature", "properties": {"norad_id": 33822, "name": "COSMOS 2251 DEB", "group": "cosmos-2251-debris", "lat": 14.56959466089129, "lon": -157.7925861133363, "alt_km": 920.436867174908, "timestamp": "2025-12-10T07:43:55.171921+00:00", "meta": {"OBJECT_NAME": "COSMOS 2251 DEB", "OBJECT_ID": "1993-036BP", "EPOCH": "2025-12-09T14:48:56.346912", "MEAN_MOTION": 14.13047217, "ECCENTRICITY": 0.0153558, "INCLINATION": 74.0694, "RA_OF_ASC_NODE": 199.1939, "ARG_OF_PERICENTER": 246.2572, "MEAN_ANOMALY": 143.5365, "EPHEMERIS_TYPE": 0, "CLASSIFICATION_TYPE": "U", "NORAD_CAT_ID": 33822, "ELEMENT_SET_NO": 999, "REV_AT_EPOCH": 86010, "BSTAR": 0.0018479, "MEAN_MOTION_DOT": 3.834e-05, "MEAN_MOTION_DDOT": 0}, "tle": {"line1": "1 33822U 93036BP  25343.61731883  .00003834  00000+0  18479-2 0  9991", "line2": "2 33822  74.0694 199.1939 0153558 246.2572 143.5365 14.13047217860108"}}, "geometry": {"type": "Point", "coordinates": [-157.7925861133363, 14.56959466089129]}}, {"type": "Feature", "properties": {"norad_id": 33823, "name": "COSMOS 2251 DEB", "group": "cosmos-2251-debris", "lat": -37.98465527846642, "lon": 140.455733109033, "alt_km": 787.3983475057212, "timestamp": "2025-12-10T07:43:55.171931+00:00", "meta": {"OBJECT_NAME": "COSMOS 2251 DEB", "OBJECT_ID": "1993-036BQ", "EPOCH": "2025-12-09T18:17:16.876032", "MEAN_MOTION": 13.98939354, "ECCENTRICITY": 0.0209296, "INCLINATION": 73.8096, "RA_OF_ASC_NODE": 154.5493, "ARG_OF_PERICENTER": 280.1878, "MEAN_ANOMALY": 98.4683, "EPHEMERIS_TYPE": 0, "CLASSIFICATION_TYPE": "U", "NORAD_CAT_ID": 33823, "ELEMENT_SET_NO": 999, "REV_AT_EPOCH": 85568, "BSTAR": 0.0011857, "MEAN_MOTION_DOT": 2.038e-05, "MEAN_MOTION_DDOT": 0}, "tle": {"line1": "1 33823U 93036BQ  25343.76200088  .00002038  00000+0  11857-2 0  9994", "line2": "2 33823  73.8096 154.5493 0209296 280.1878  98.4683 13.98939354855681"}}, "geometry": {"type": "Point", "coordinates": [140.455733109033, -37.98465527846642]}}]}